$$SOE
2460147.500000000, A.D. 2023-Jul-22 00:00:00.0000, -2.595883501189232E+08, -4.430525047773824E+08, -2.491745950734500E+08,
2460154.500000000, A.D. 2023-Jul-29 00:00:00.0000, -2.529971231101808E+08, -4.457588665860922E+08, -2.516681479053099E+08,
2460161.500000000, A.D. 2023-Aug-05 00:00:00.0000, -2.463399840890978E+08, -4.483490037698892E+08, -2.540960700044834E+08,
2460168.500000000, A.D. 2023-Aug-12 00:00:00.0000, -2.396187363321533E+08, -4.508223606693727E+08, -2.564577949654864E+08,
2460175.500000000, A.D. 2023-Aug-19 00:00:00.0000, -2.328351797960515E+08, -4.531783833947662E+08, -2.587527575832219E+08,
2460182.500000000, A.D. 2023-Aug-26 00:00:00.0000, -2.259911120203452E+08, -4.554165194016719E+08, -2.609803935280042E+08,
2460189.500000000, A.D. 2023-Sep-02 00:00:00.0000, -2.190883290589692E+08, -4.575362171552239E+08, -2.631401390355517E+08,
2460196.500000000, A.D. 2023-Sep-09 00:00:00.0000, -2.121286264049321E+08, -4.595369259234756E+08, -2.652314306182959E+08,
2460203.500000000, A.D. 2023-Sep-16 00:00:00.0000, -2.051137997407141E+08, -4.614180957577041E+08, -2.672537048178353E+08,
2460210.500000000, A.D. 2023-Sep-23 00:00:00.0000, -1.980456450989954E+08, -4.631791773725426E+08, -2.692063980129245E+08,
2460217.500000000, A.D. 2023-Sep-30 00:00:00.0000, -1.909259587743684E+08, -4.648196207348781E+08, -2.710889461540689E+08,
2460224.500000000, A.D. 2023-Oct-07 00:00:00.0000, -1.837565393406762E+08, -4.663388729038613E+08, -2.729007842524806E+08,
2460231.500000000, A.D. 2023-Oct-14 00:00:00.0000, -1.765391907347015E+08, -4.677363784349785E+08, -2.746413459889396E+08,
2460238.500000000, A.D. 2023-Oct-21 00:00:00.0000, -1.692757231784887E+08, -4.690115807457409E+08, -2.763100636076568E+08,
2460245.500000000, A.D. 2023-Oct-28 00:00:00.0000, -1.619679533659930E+08, -4.701639221830818E+08, -2.779063677797118E+08,
2460252.500000000, A.D. 2023-Nov-04 00:00:00.0000, -1.546177051654218E+08, -4.711928435628028E+08, -2.794296873839642E+08,
2460259.500000000, A.D. 2023-Nov-11 00:00:00.0000, -1.472268106608986E+08, -4.720977837808934E+08, -2.808794492702332E+08,
2460266.500000000, A.D. 2023-Nov-18 00:00:00.0000, -1.397971113150690E+08, -4.728781795610889E+08, -2.822550780296674E+08,
2460273.500000000, A.D. 2023-Nov-25 00:00:00.0000, -1.323304591809004E+08, -4.735334653163124E+08, -2.835559957768264E+08,
2460280.500000000, A.D. 2023-Dec-02 00:00:00.0000, -1.248287181356237E+08, -4.740630731355618E+08, -2.847816219468734E+08,
2460287.500000000, A.D. 2023-Dec-09 00:00:00.0000, -1.172937650602505E+08, -4.744664329556395E+08, -2.859313731199442E+08,
2460294.500000000, A.D. 2023-Dec-16 00:00:00.0000, -1.097274906785366E+08, -4.747429729057257E+08, -2.870046628982977E+08,
2460301.500000000, A.D. 2023-Dec-23 00:00:00.0000, -1.021317997085042E+08, -4.748921191379535E+08, -2.880009018123720E+08,
2460308.500000000, A.D. 2023-Dec-30 00:00:00.0000, -9.450861166839395E+07, -4.749132940952406E+08, -2.889194970473210E+08,
2460315.500000000, A.D. 2024-Jan-06 00:00:00.0000, -8.685986411092162E+07, -4.748059155774655E+08, -2.897598520204633E+08,
2460322.500000000, A.D. 2024-Jan-13 00:00:00.0000, -7.918751511424415E+07, -4.745693984136227E+08, -2.905213662488080E+08,
2460329.500000000, A.D. 2024-Jan-20 00:00:00.0000, -7.149354380760919E+07, -4.742031556565710E+08, -2.912034353678806E+08,
2460336.500000000, A.D. 2024-Jan-27 00:00:00.0000, -6.377995096240058E+07, -4.737065986493111E+08, -2.918054510634613E+08,
2460343.500000000, A.D. 2024-Feb-03 00:00:00.0000, -5.604876007902440E+07, -4.730791369123747E+08, -2.923268009551574E+08,
2460350.500000000, A.D. 2024-Feb-10 00:00:00.0000, -4.830201869434739E+07, -4.723201781443994E+08, -2.927668684815682E+08,
2460357.500000000, A.D. 2024-Feb-17 00:00:00.0000, -4.054179977302081E+07, -4.714291283289593E+08, -2.931250327994773E+08,
2460364.500000000, A.D. 2024-Feb-24 00:00:00.0000, -3.277020314863556E+07, -4.704053919339465E+08, -2.934006686994463E+08,
2460371.500000000, A.D. 2024-Mar-02 00:00:00.0000, -2.498935698704923E+07, -4.692483722373068E+08, -2.935931465435544E+08,
2460378.500000000, A.D. 2024-Mar-09 00:00:00.0000, -1.720141913468148E+07, -4.679574718435640E+08, -2.937018322438682E+08,
2460385.500000000, A.D. 2024-Mar-16 00:00:00.0000, -9.408577958189903E+06, -4.665320931957881E+08, -2.937260873028897E+08,
2460392.500000000, A.D. 2024-Mar-23 00:00:00.0000, -1.613052781156166E+06, -4.649716379761373E+08, -2.936652688172589E+08,
2460399.500000000, A.D. 2024-Mar-30 00:00:00.0000, 6.182903838667013E+06, -4.632755054239116E+08, -2.935187292426103E+08,
2460406.500000000, A.D. 2024-Apr-06 00:00:00.0000, 1.397700224528305E+07, -4.614430929407819E+08, -2.932858162193449E+08,
2460413.500000000, A.D. 2024-Apr-13 00:00:00.0000, 2.176691378251975E+07, -4.594737981492653E+08, -2.929658727181854E+08,
2460420.500000000, A.D. 2024-Apr-20 00:00:00.0000, 2.955026989950850E+07, -4.573670197307854E+08, -2.925582372013161E+08,
2460427.500000000, A.D. 2024-Apr-27 00:00:00.0000, 3.732466074367476E+07, -4.551221576077054E+08, -2.920622437074831E+08,
2460434.500000000, A.D. 2024-May-04 00:00:00.0000, 4.508763332628644E+07, -4.527386131756885E+08, -2.914772219280810E+08,
2460441.500000000, A.D. 2024-May-11 00:00:00.0000, 5.283668949607299E+07, -4.502157896912460E+08, -2.908024973059164E+08,
2460448.500000000, A.D. 2024-May-18 00:00:00.0000, 6.056928380009333E+07, -4.475530927960559E+08, -2.900373911639777E+08,
2460455.500000000, A.D. 2024-May-25 00:00:00.0000, 6.828282125382608E+07, -4.447499311886051E+08, -2.891812208687948E+08,
2460462.500000000, A.D. 2024-Jun-01 00:00:00.0000, 7.597465507763970E+07, -4.418057175043685E+08, -2.882333000405906E+08,
2460469.500000000, A.D. 2024-Jun-08 00:00:00.0000, 8.364208464324792E+07, -4.387198694317585E+08, -2.871929388371173E+08,
2460476.500000000, A.D. 2024-Jun-15 00:00:00.0000, 9.128235402668503E+07, -4.354918105236168E+08, -2.860594443060557E+08,
2460483.500000000, A.D. 2024-Jun-22 00:00:00.0000, 9.889265015923405E+07, -4.321209695344217E+08, -2.848321206206113E+08,
2460490.500000000, A.D. 2024-Jun-29 00:00:00.0000, 1.064700984512013E+08, -4.286067801093833E+08, -2.835102691550407E+08,
2460497.500000000, A.D. 2024-Jul-06 00:00:00.0000, 1.140117585305894E+08, -4.249486833020410E+08, -2.820931888472562E+08,
2460504.500000000, A.D. 2024-Jul-13 00:00:00.0000, 1.215146220433623E+08, -4.211461301027055E+08, -2.805801768001403E+08,
2460511.500000000, A.D. 2024-Jul-20 00:00:00.0000, 1.289756105268155E+08, -4.171985828364059E+08, -2.789705288499151E+08,
2460518.500000000, A.D. 2024-Jul-27 00:00:00.0000, 1.363915726970885E+08, -4.131055163975915E+08, -2.772635401244032E+08,
2460525.500000000, A.D. 2024-Aug-03 00:00:00.0000, 1.437592814208747E+08, -4.088664197047698E+08, -2.754585056518294E+08,
2460532.500000000, A.D. 2024-Aug-10 00:00:00.0000, 1.510754305343294E+08, -4.044807973882964E+08, -2.735547210412191E+08,
2460539.500000000, A.D. 2024-Aug-17 00:00:00.0000, 1.583366315538368E+08, -3.999481716989117E+08, -2.715514832429132E+08,
2460546.500000000, A.D. 2024-Aug-24 00:00:00.0000, 1.655394103040533E+08, -3.952680846691800E+08, -2.694480914000224E+08,
2460553.500000000, A.D. 2024-Aug-31 00:00:00.0000, 1.726802035768293E+08, -3.904401005999819E+08, -2.672438478135884E+08,
2460560.500000000, A.D. 2024-Sep-07 00:00:00.0000, 1.797553561848876E+08, -3.854638087574365E+08, -2.649380590527272E+08,
2460567.500000000, A.D. 2024-Sep-14 00:00:00.0000, 1.867611184940382E+08, -3.803388252975173E+08, -2.625300371452260E+08,
2460574.500000000, A.D. 2024-Sep-21 00:00:00.0000, 1.936936424035004E+08, -3.750647940201436E+08, -2.600191006382489E+08,
2460581.500000000, A.D. 2024-Sep-28 00:00:00.0000, 2.005489752854871E+08, -3.696413891952486E+08, -2.574045757574663E+08,
2460588.500000000, A.D. 2024-Oct-05 00:00:00.0000, 2.073230555536076E+08, -3.640683204747228E+08, -2.546857980109901E+08,
2460595.500000000, A.D. 2024-Oct-12 00:00:00.0000, 2.140117095002779E+08, -3.583453369275347E+08, -2.518621139729699E+08,
2460602.500000000, A.D. 2024-Oct-19 00:00:00.0000, 2.206106476533785E+08, -3.524722304878577E+08, -2.489328831206508E+08,
2460609.500000000, A.D. 2024-Oct-26 00:00:00.0000, 2.271154606216799E+08, -3.464488396376514E+08, -2.458974798000218E+08,
2460616.500000000, A.D. 2024-Nov-02 00:00:00.0000, 2.335216146895673E+08, -3.402750534931400E+08, -2.427552953689685E+08,
2460623.500000000, A.D. 2024-Nov-09 00:00:00.0000, 2.398244472625240E+08, -3.339508162966726E+08, -2.395057405392475E+08,
2460630.500000000, A.D. 2024-Nov-16 00:00:00.0000, 2.460191621960454E+08, -3.274761323372290E+08, -2.361482479351344E+08,
2460637.500000000, A.D. 2024-Nov-23 00:00:00.0000, 2.521008250637574E+08, -3.208510713745662E+08, -2.326822748942800E+08,
2460644.500000000, A.D. 2024-Nov-30 00:00:00.0000, 2.580643585842089E+08, -3.140757746366327E+08, -2.291073065524421E+08,
2460651.500000000, A.D. 2024-Dec-07 00:00:00.0000, 2.639045386394671E+08, -3.071504609990613E+08, -2.254228592374814E+08,
2460658.500000000, A.D. 2024-Dec-14 00:00:00.0000, 2.696159902129195E+08, -3.000754321552224E+08, -2.216284840326968E+08,
2460665.500000000, A.D. 2024-Dec-21 00:00:00.0000, 2.751931809456878E+08, -2.928510780523677E+08, -2.177237704221528E+08,
2460672.500000000, A.D. 2024-Dec-28 00:00:00.0000, 2.806304143050423E+08, -2.854778855965372E+08, -2.137083504652908E+08,
2460679.500000000, A.D. 2025-Jan-04 00:00:00.0000, 2.859218249880106E+08, -2.779564482864756E+08, -2.095819035704400E+08,
2460686.500000000, A.D. 2025-Jan-11 00:00:00.0000, 2.910613747701752E+08, -2.702874751557213E+08, -2.053441615927819E+08,
2460693.500000000, A.D. 2025-Jan-18 00:00:00.0000, 2.960428479190071E+08, -2.624717999828588E+08, -2.009949142778259E+08,
2460700.500000000, A.D. 2025-Jan-25 00:00:00.0000, 3.008598464572903E+08, -2.545103912872767E+08, -1.965340151432029E+08,
2460707.500000000, A.D. 2025-Feb-01 00:00:00.0000, 3.055057855149178E+08, -2.464043631849040E+08, -1.919613878521110E+08,
$$EOE